{"type": "FeatureCollection", "features": [ {"type": "Feature", "properties": {"norad_id": 30928, "name": "FENGYUN 1C DEB", "group": "fengyun-1c-debris", "lat": -24.69190747868806, "lon": -97.87868821010188, "alt_km": 1493.5571502330904, "timestamp": "2025-12-24T16:52:41.811702+00:00", "meta": {"OBJECT_NAME": "FENGYUN 1C DEB", "OBJECT_ID": "1999-025AZS", "EPOCH": "2025-12-24T05:11:59.057664", "MEAN_MOTION": 13.22254347, "ECCENTRICITY": 0.04498554, "INCLINATION": 98.8822, "RA_OF_ASC_NODE": 85.829, "ARG_OF_PERICENTER": 3.7388, "MEAN_ANOMALY": 48.0779, "EPHEMERIS_TYPE": 0, "CLASSIFICATION_TYPE": "U", "NORAD_CAT_ID": 30928, "ELEMENT_SET_NO": 999, "REV_AT_EPOCH": 90500, "BSTAR": 0.0011187568, "MEAN_MOTION_DOT": 7.59e-06, "MEAN_MOTION_DDOT": 0}, "tle": {"line1": "1 30928U 99025AZS 25358.21665576  .00000759  00000+0  11188-2 0  9999", "line2": "2 30928  98.8822  85.8290 0449855   3.7388  48.0779 13.22254347905009"}}, "geometry": {"type": "Point", "coordinates": [-97.87868821010188, -24.69190747868806]}}, {"type": "Feature", "properties": {"norad_id": 30930, "name": "FENGYUN 1C DEB", "group": "fengyun-1c-debris", "lat": -77.45320091578189, "lon": 165.9909187162465, "alt_km": 851.6062939496878, "timestamp": "2025-12-24T16:52:41.811712+00:00", "meta": {"OBJECT_NAME": "FENGYUN 1C DEB", "OBJECT_ID": "1999-025AZU", "EPOCH": "2025-12-24T07:35:54.253824", "MEAN_MOTION": 14.37414538, "ECCENTRICITY": 0.01096647, "INCLINATION": 98.2146, "RA_OF_ASC_NODE": 26.0944, "ARG_OF_PERICENTER": 71.9242, "MEAN_ANOMALY": 349.0631, "EPHEMERIS_TYPE": 0, "CLASSIFICATION_TYPE": "U", "NORAD_CAT_ID": 30930, "ELEMENT_SET_NO": 999, "REV_AT_EPOCH": 98498, "BSTAR": 0.00032538057, "MEAN_MOTION_DOT": 1e-05, "MEAN_MOTION_DDOT": 0}, "tle": {"line1": "1 30930U 99025AZU 25358.31660016  .00001000  00000+0  32538-3 0  9990", "line2": "2 30930  98.2146  26.0944 0109664  71.9242 349.0631 14.37414538984987"}}, "geometry": {"type": "Point", "coordinates": [165.9909187162465, -77.45320091578189]}}, {"type": "Feature", "properties": {"norad_id": 30931, "name": "FENGYUN 1C DEB", "group": "fengyun-1c-debris", "lat": -7.953419057796291, "lon": 57.588813447034944, "alt_km": 827.6449750319816, "timestamp": "2025-12-24T16:52:41.811722+00:00", "meta": {"OBJECT_NAME": "FENGYUN 1C DEB", "OBJECT_ID": "1999-025AZV", "EPOCH": "2025-12-24T03:28:22.409184", "MEAN_MOTION": 14.01532859, "ECCENTRICITY": 0.00927154, "INCLINATION": 99.1706, "RA_OF_ASC_NODE": 55.7344, "ARG_OF_PERICENTER": 9.9912, "MEAN_ANOMALY": 45.691, "EPHEMERIS_TYPE": 0, "CLASSIFICATION_TYPE": "U", "NORAD_CAT_ID": 30931, "ELEMENT_SET_NO": 999, "REV_AT_EPOCH": 96085, "BSTAR": 0.00055955963, "MEAN_MOTION_DOT": 8.33e-06, "MEAN_MOTION_DDOT": 0}, "tle": {"line1": "1 30931U 99025AZV 25358.14470381  .00000833  00000+0  55956-3 0  9998", "line2": "2 30931  99.1706  55.7344 0092715   9.9912  45.6910 14.01532859960853"}}, "geometry": {"type": "Point", "coordinates": [57.588813447034944, -7.953419057796291]}}, {"type": "Feature", "properties": {"norad_id": 30932, "name": "FENGYUN 1C DEB", "group": "fengyun-1c-debris", "lat": -66.15796667565091, "lon": -47.388152212565274, "alt_km": 774.6464799036712, "timestamp": "2025-12-24T16:52:41.811733+00:00", "meta": {"OBJECT_NAME": "FENGYUN 1C DEB", "OBJECT_ID": "1999-025AZW", "EPOCH": "2025-12-21T06:43:56.374176", "MEAN_MOTION": 14.26904015, "ECCENTRICITY": 0.00571492, "INCLINATION": 98.9092, "RA_OF_ASC_NODE": 288.3376, "ARG_OF_PERICENTER": 269.3371, "MEAN_ANOMALY": 90.126, "EPHEMERIS_TYPE": 0, "CLASSIFICATION_TYPE": "U", "NORAD_CAT_ID": 30932, "ELEMENT_SET_NO": 999, "REV_AT_EPOCH": 96516, "BSTAR": 0.0018186282, "MEAN_MOTION_DOT": 4.449e-05, "MEAN_MOTION_DDOT": 0}, "tle": {"line1": "1 30932U 99025AZW 25355.28051359  .00004449  00000+0  18186-2 0  9991", "line2": "2 30932  98.9092 288.3376 0057149 269.3371  90.1260 14.26904015965167"}}, "geometry": {"type": "Point", "coordinates": [-47.388152212565274, -66.15796667565091]}}, {"type": "Feature", "properties": {"norad_id": 30933, "name": "FENGYUN 1C DEB", "group": "fengyun-1c-debris", "lat": -68.1398201091026, "lon": 138.39562352274498, "alt_km": 733.7020616950394, "timestamp": "2025-12-24T16:52:41.811743+00:00", "meta": {"OBJECT_NAME": "FENGYUN 1C DEB", "OBJECT_ID": "1999-025AZX", "EPOCH": "2025-12-23T11:53:06.221760", "MEAN_MOTION": 14.36772537, "ECCENTRICITY": 0.00755723, "INCLINATION": 99.0479, "RA_OF_ASC_NODE": 340.5286, "ARG_OF_PERICENTER": 291.73, "MEAN_ANOMALY": 193.7425, "EPHEMERIS_TYPE": 0, "CLASSIFICATION_TYPE": "U", "NORAD_CAT_ID": 30933, "ELEMENT_SET_NO": 999, "REV_AT_EPOCH": 96026, "BSTAR": 0.0047574894, "MEAN_MOTION_DOT": 0.00014487, "MEAN_MOTION_DDOT": 0}, "tle": {"line1": "1 30933U 99025AZX 25357.49521090  .00014487  00000+0  47575-2 0  9998", "line2": "2 30933  99.0479 340.5286 0075572 291.7300 193.7425 14.36772537960263"}}, "geometry": {"type": "Point", "coordinates": [138.39562352274498, -68.1398201091026]}}, {"type": "Feature", "properties": {"norad_id": 30934, "name": "FENGYUN 1C DEB", "group": "fengyun-1c-debris", "lat": -76.39665876166701, "lon": -86.15445718524548, "alt_km": 1252.091351825762, "timestamp": "2025-12-24T16:52:41.811754+00:00", "meta": {"OBJECT_NAME": "FENGYUN 1C DEB", "OBJECT_ID": "1999-025AZY", "EPOCH": "2025-12-24T06:34:30.394560", "MEAN_MOTION": 13.46784403, "ECCENTRICITY": 0.03412964, "INCLINATION": 98.7654, "RA_OF_ASC_NODE": 233.8587, "ARG_OF_PERICENTER": 52.164, "MEAN_ANOMALY": 310.9869, "EPHEMERIS_TYPE": 0, "CLASSIFICATION_TYPE": "U", "NORAD_CAT_ID": 30934, "ELEMENT_SET_NO": 999, "REV_AT_EPOCH": 91863, "BSTAR": 0.0021746482, "MEAN_MOTION_DOT": 1.84e-05, "MEAN_MOTION_DDOT": 0}, "tle": {"line1": "1 30934U 99025AZY 25358.27396290  .00001840  00000+0  21746-2 0  9999", "line2": "2 30934  98.7654 233.8587 0341296  52.1640 310.9869 13.46784403918632"}}, "geometry": {"type": "Point", "coordinates": [-86.15445718524548, -76.39665876166701]}}, {"type": "Feature", "properties": {"norad_id": 30936, "name": "FENGYUN 1C DEB", "group": "fengyun-1c-debris", "lat": 11.626052128958564, "lon": 27.427357854414545, "alt_km": 829.8745773872624, "timestamp": "2025-12-24T16:52:41.811764+00:00", "meta": {"OBJECT_NAME": "FENGYUN 1C DEB", "OBJECT_ID": "1999-025BAA", "EPOCH": "2025-12-23T21:25:10.460352", "MEAN_MOTION": 14.23397521, "ECCENTRICITY": 0.0046083, "INCLINATION": 98.5807, "RA_OF_ASC_NODE": 28.417, "ARG_OF_PERICENTER": 257.6614, "MEAN_ANOMALY": 281.4714, "EPHEMERIS_TYPE": 0, "CLASSIFICATION_TYPE": "U", "NORAD_CAT_ID": 30936, "ELEMENT_SET_NO": 999, "REV_AT_EPOCH": 97291, "BSTAR": 0.00045721, "MEAN_MOTION_DOT": 1.006e-05, "MEAN_MOTION_DDOT": 0}, "tle": {"line1": "1 30936U 99025BAA 25357.89248218  .00001006  00000+0  45721-3 0  9998", "line2": "2 30936  98.5807  28.4170 0046083 257.6614 281.4714 14.23397521972916"}}, "geometry": {"type": "Point", "coordinates": [27.427357854414545, 11.626052128958564]}}, {"type": "Feature", "properties": {"norad_id": 30937, "name": "FENGYUN 1C DEB", "group": "fengyun-1c-debris", "lat": 80.64379488685458, "lon": -25.359505459458017, "alt_km": 879.9530202044825, "timestamp": "2025-12-24T16:52:41.811774+00:00", "meta": {"OBJECT_NAME": "FENGYUN 1C DEB", "OBJECT_ID": "1999-025BAB", "EPOCH": "2025-12-24T02:50:01.044960", "MEAN_MOTION": 13.95588445, "ECCENTRICITY": 0.00753021, "INCLINATION": 99.0873, "RA_OF_ASC_NODE": 50.32, "ARG_OF_PERICENTER": 22.2923, "MEAN_ANOMALY": 6.2216, "EPHEMERIS_TYPE": 0, "CLASSIFICATION_TYPE": "U", "NORAD_CAT_ID": 30937, "ELEMENT_SET_NO": 999, "REV_AT_EPOCH": 95875, "BSTAR": -3.472039e-05, "MEAN_MOTION_DOT": -9.2e-07, "MEAN_MOTION_DDOT": 0}, "tle": {"line1": "1 30937U 99025BAB 25358.11806765 -.00000092  00000+0 -34720-4 0  9996", "line2": "2 30937  99.0873  50.3200 0075302  22.2923   6.2216 13.95588445958750"}}, "geometry": {"type": "Point", "coordinates": [-25.359505459458017, 80.64379488685458]}}, {"type": "Feature", "properties": {"norad_id": 30938, "name": "FENGYUN 1C DEB", "group": "fengyun-1c-debris", "lat": 47.896321471121375, "lon": -158.52770983214964, "alt_km": 854.286151227172, "timestamp": "2025-12-24T16:52:41.811785+00:00", "meta": {"OBJECT_NAME": "FENGYUN 1C DEB", "OBJECT_ID": "1999-025BAC", "EPOCH": "2025-12-23T23:37:06.614976", "MEAN_MOTION": 14.19835506, "ECCENTRICITY": 0.0045417, "INCLINATION": 98.5904, "RA_OF_ASC_NODE": 11.1452, "ARG_OF_PERICENTER": 310.8507, "MEAN_ANOMALY": 106.6494, "EPHEMERIS_TYPE": 0, "CLASSIFICATION_TYPE": "U", "NORAD_CAT_ID": 30938, "ELEMENT_SET_NO": 999, "REV_AT_EPOCH": 97279, "BSTAR": 0.00032096, "MEAN_MOTION_DOT": 6.44e-06, "MEAN_MOTION_DDOT": 0}, "tle": {"line1": "1 30938U 99025BAC 25357.98410434  .00000644  00000+0  32096-3 0  9999", "line2": "2 30938  98.5904  11.1452 0045417 310.8507 106.6494 14.19835506972795"}}, "geometry": {"type": "Point", "coordinates": [-158.52770983214964, 47.896321471121375]}}, {"type": "Feature", "properties": {"norad_id": 30940, "name": "FENGYUN 1C DEB", "group": "fengyun-1c-debris", "lat": -76.49052676174153, "lon": 37.67369859083202, "alt_km": 853.1120914402427, "timestamp": "2025-12-24T16:52:41.811795+00:00", "meta": {"OBJECT_NAME": "FENGYUN 1C DEB", "OBJECT_ID": "1999-025BAE", "EPOCH": "2025-12-22T05:52:00.054912", "MEAN_MOTION": 14.08319135, "ECCENTRICITY": 0.00407229, "INCLINATION": 98.6214, "RA_OF_ASC_NODE": 356.1653, "ARG_OF_PERICENTER": 336.7041, "MEAN_ANOMALY": 84.9821, "EPHEMERIS_TYPE": 0, "CLASSIFICATION_TYPE": "U", "NORAD_CAT_ID": 30940, "ELEMENT_SET_NO": 999, "REV_AT_EPOCH": 96266, "BSTAR": 0.00045494688, "MEAN_MOTION_DOT": 7.42e-06, "MEAN_MOTION_DDOT": 0}, "tle": {"line1": "1 30940U 99025BAE 25356.24444508  .00000742  00000+0  45495-3 0  9995", "line2": "2 30940  98.6214 356.1653 0040722 336.7041  84.9821 14.08319135962662"}}, "geometry": {"type": "Point", "coordinates": [37.67369859083202, -76.49052676174153]}}]}